     2.100          NAVIGATION                              RINEX VERSION / TYPE
fic2rin                                 09/15/2014 00:36:52 PGM / RUN BY / DATE
                                                            END OF HEADER
31 14  9 14 18  0  0.0  .331706367433D-03 -.454747350886D-12  .000000000000D+00
     .390000000000D+02  .177500000000D+02  .417338812408D-08  .121026514447D+01
     .929459929466D-06  .803115230519D-02  .404939055443D-05  .515362509537D+04
     .648000000000D+05  .149011611938D-06 -.531221087399D+00  .204890966415D-07
     .977592085023D+00  .306500000000D+03 -.633922534515D+00 -.813855328913D-08
    -.428589281035D-11  .100000000000D+01  .181000000000D+04  .000000000000D+00
     .240000000000D+01  .000000000000D+00 -.130385160446D-07  .390000000000D+02
     .576060000000D+05  .400000000000D+01
32 14  9 14 18  0  0.0 -.340200960636D-03  .852651282912D-11  .000000000000D+00
     .450000000000D+02  .546875000000D+01  .480055710533D-08  .174693535448D+01
     .406056642532D-06  .114097355399D-01  .955350697041D-05  .515365673828D+04
     .648000000000D+05 -.335276126862D-07 -.257307217298D+01  .154599547386D-06
     .947697583751D+00  .187843750000D+03 -.899105618672D-01 -.808676541767D-08
    -.505021036153D-09  .100000000000D+01  .181000000000D+04  .000000000000D+00
     .240000000000D+01  .000000000000D+00 -.325962901115D-08  .450000000000D+02
     .576060000000D+05  .400000000000D+01
30 14  9 14 17 59 44.0 -.618910416961D-04 -.454747350886D-11  .000000000000D+00
     .270000000000D+02  .690625000000D+01  .461590655675D-08  .111999393380D+01
     .441446900368D-06  .103767029941D-02  .373460352421D-05  .515366139221D+04
     .647840000000D+05  .186264514923D-07 -.484940080844D+00  .707805156708D-07
     .958321509892D+00  .305312500000D+03  .311140124139D+01 -.830713173967D-08
    -.278583032673D-10  .100000000000D+01  .181000000000D+04  .000000000000D+00
     .240000000000D+01  .000000000000D+00  .325962901115D-08  .270000000000D+02
     .592560000000D+05  .400000000000D+01
25 14  9 14 17 59 44.0  .214539468288D-04 -.102318153949D-11  .000000000000D+00
     .200000000000D+01 -.719687500000D+02  .416410202299D-08  .732377342570D-01
    -.372156500816D-05  .366641499568D-02  .769831240177D-05  .515355711555D+04
     .647840000000D+05  .577419996262D-07  .482518157058D+00  .856816768646D-07
     .977154984119D+00  .244093750000D+03  .720690910732D+00 -.802854870699D-08
    -.467876631797D-10  .100000000000D+01  .181000000000D+04  .000000000000D+00
     .240000000000D+01  .000000000000D+00  .558793544769D-08  .200000000000D+01
     .593160000000D+05  .400000000000D+01
 8 14  9 14 17 59 44.0  .155628658831D-04  .227373675443D-12  .000000000000D+00
     .800000000000D+01  .715625000000D+01  .380265839599D-08  .128517251445D+01
     .460073351860D-06  .146044561407D-01  .481680035591D-05  .515218102074D+04
     .647840000000D+05 -.968575477600D-07 -.436011426632D+00  .178813934326D-06
     .996141595147D+00  .306093750000D+03 -.271485266485D+01 -.800783355841D-08
    -.215723271454D-09  .100000000000D+01  .181000000000D+04  .000000000000D+00
     .240000000000D+01  .000000000000D+00 -.419095158577D-08  .800000000000D+01
     .643560000000D+05  .400000000000D+01
 3 14  9 14 17 59 44.0 -.810807570815D-03 -.310365066980D-10  .000000000000D+00
     .120000000000D+02 -.614062500000D+02  .422624746874D-08 -.227246994618D+01
    -.302307307720D-05  .107188505353D-01  .640749931335D-05  .515371374702D+04
     .647840000000D+05  .186264514923D-06  .383891447351D+00  .115483999252D-06
     .967568278600D+00  .253406250000D+03  .171383216038D+01 -.792783022595D-08
    -.364300888880D-10  .100000000000D+01  .181000000000D+04  .000000000000D+00
     .485000000000D+01  .630000000000D+02 -.419095158577D-08  .120000000000D+02
     .645960000000D+05  .400000000000D+01
 8 14  9 14 19 59 44.0  .155642628670D-04  .227373675443D-12  .000000000000D+00
     .360000000000D+02  .136875000000D+02  .376872841124D-08  .233631583707D+01
     .616535544395D-06  .146048271563D-01  .488385558128D-05  .515217941093D+04
     .719840000000D+05 -.288709998131D-06 -.436069602495D+00 -.447034835815D-07
     .996141197234D+00  .305031250000D+03 -.271490643880D+01 -.781889711702D-08
    -.575023952056D-10  .100000000000D+01  .181000000000D+04  .000000000000D+00
     .240000000000D+01  .000000000000D+00 -.419095158577D-08  .360000000000D+02
     .648060000000D+05  .400000000000D+01
25 14  9 14 19 59 44.0  .214464962482D-04 -.102318153949D-11  .000000000000D+00
     .400000000000D+01 -.670937500000D+02  .403766818509D-08  .112341381202D+01
    -.365450978279D-05  .366711802781D-02  .755302608013D-05  .515355848885D+04
     .719840000000D+05 -.130385160446D-07  .482460772633D+00  .540167093277D-07
     .977154473560D+00  .240656250000D+03  .720763156941D+00 -.800283335013D-08
    -.101432796512D-09  .100000000000D+01  .181000000000D+04  .000000000000D+00
     .240000000000D+01  .000000000000D+00  .558793544769D-08  .400000000000D+01
     .648060000000D+05  .400000000000D+01
30 14  9 14 19 59 44.0 -.619236379862D-04 -.454747350886D-11  .000000000000D+00
     .280000000000D+02  .108750000000D+02  .460269172058D-08  .216903606133D+01
     .622123479843D-06  .103789847344D-02  .428222119808D-05  .515366360092D+04
     .719840000000D+05 -.558793544769D-08 -.484999609906D+00  .111758708954D-07
     .958321097349D+00  .296593750000D+03  .311254695055D+01 -.830070290045D-08
    -.760745973838D-10  .100000000000D+01  .181000000000D+04  .000000000000D+00
     .240000000000D+01  .000000000000D+00  .325962901115D-08  .280000000000D+02
     .648060000000D+05  .400000000000D+01
 1 14  9 14 20  0  0.0  .211969017982D-04  .568434188608D-12  .000000000000D+00
     .900000000000D+01 -.107187500000D+02  .482484383125D-08  .284567271262D+01
    -.512227416039D-06  .349832000211D-02  .700168311596D-05  .515367135811D+04
     .720000000000D+05 -.502914190292D-07  .258488936629D+01 -.502914190292D-07
     .961453207882D+00  .245187500000D+03  .406535112196D+00 -.805712132573D-08
     .126433837905D-09  .100000000000D+01  .181000000000D+04  .000000000000D+00
     .240000000000D+01  .000000000000D+00  .558793544769D-08  .900000000000D+01
     .648060000000D+05  .400000000000D+01
 2 14  9 14 20  0  0.0  .518444925547D-03  .216004991671D-11  .000000000000D+00
     .520000000000D+02 -.134062500000D+02  .533272212928D-08 -.273118521626D+01
    -.704079866409D-06  .137546999613D-01  .621937215328D-05  .515367180634D+04
     .720000000000D+05  .119209289551D-06  .255288596474D+01 -.296160578728D-06
     .939992073849D+00  .246281250000D+03 -.238824410971D+01 -.828320217148D-08
     .110718897601D-09  .100000000000D+01  .181000000000D+04  .000000000000D+00
     .240000000000D+01  .000000000000D+00 -.200234353542D-07  .520000000000D+02
     .648060000000D+05  .400000000000D+01
 3 14  9 14 20  0  0.0 -.811032019556D-03 -.310365066980D-10  .000000000000D+00
     .130000000000D+02 -.645625000000D+02  .431339395589D-08 -.122000759956D+01
    -.311993062496D-05  .107186716050D-01  .691786408424D-05  .515371329498D+04
     .720000000000D+05 -.139698386192D-06  .383833204194D+00  .145286321640D-06
     .967566511395D+00  .251343750000D+03  .171385787994D+01 -.824748639806D-08
    -.428589281035D-10  .100000000000D+01  .181000000000D+04  .000000000000D+00
     .685000000000D+01  .630000000000D+02 -.419095158577D-08  .130000000000D+02
     .648060000000D+05  .400000000000D+01
 4 14  9 14 20  0  0.0 -.715721398592D-06 -.341060513165D-12  .000000000000D+00
     .980000000000D+02 -.140625000000D+02  .540236788745D-08  .182842835301D+01
    -.843778252602D-06  .110583946807D-01  .674650073051D-05  .515198850060D+04
     .720000000000D+05 -.232830643654D-06  .256861793853D+01 -.236555933952D-06
     .939012620936D+00  .239843750000D+03  .107489917825D+01 -.842892252703D-08
     .148220459691D-09  .100000000000D+01  .181000000000D+04  .000000000000D+00
     .340000000000D+01  .000000000000D+00 -.651925802231D-08  .980000000000D+02
     .648060000000D+05  .400000000000D+01
 5 14  9 14 20  0  0.0 -.339642632753D-03  .375166564481D-11  .000000000000D+00
     .920000000000D+02 -.215625000000D+01  .489306095849D-08 -.358126733096D+00
    -.206753611565D-06  .379760819487D-02  .896304845810D-05  .515367982674D+04
     .720000000000D+05  .316649675369D-07 -.266195024091D+01  .800937414169D-07
     .947271476676D+00  .199187500000D+03  .334418572984D+00 -.817641200895D-08
    -.368586781690D-09  .100000000000D+01  .181000000000D+04  .000000000000D+00
     .240000000000D+01  .000000000000D+00 -.102445483208D-07  .920000000000D+02
     .648060000000D+05  .400000000000D+01
 6 14  9 14 20  0  0.0 -.477768480778D-05  .795807864051D-12  .000000000000D+00
     .750000000000D+02 -.104062500000D+02  .491413326480D-08 -.416124146681D+00
    -.372529029846D-06  .513454084285D-03  .674463808537D-05  .515359661674D+04
     .720000000000D+05  .819563865662D-07  .257632972435D+01  .353902578354D-07
     .961367966572D+00  .249593750000D+03  .213504873074D+01 -.824605776712D-08
     .717887045734D-10  .100000000000D+01  .181000000000D+04  .000000000000D+00
     .240000000000D+01  .000000000000D+00  .465661287308D-08  .750000000000D+02
     .648060000000D+05  .400000000000D+01
 7 14  9 14 20  0  0.0  .391609966755D-03  .420641299570D-11  .000000000000D+00
     .840000000000D+02  .224687500000D+02  .431482258682D-08  .229955517514D+01
     .112503767014D-05  .793431256898D-02  .455603003502D-05  .515361331749D+04
     .720000000000D+05 -.167638063431D-06 -.537908732549D+00  .242143869400D-07
     .972666420832D+00  .298718750000D+03 -.278679085387D+01 -.811998108695D-08
    -.564309220030D-10  .100000000000D+01  .181000000000D+04  .000000000000D+00
     .240000000000D+01  .000000000000D+00 -.107102096081D-07  .840000000000D+02
     .648060000000D+05  .400000000000D+01
